SL-16 R/B               
1 25407U 98045B   26068.64381355  .00000172  00000+0  11100-3 0  9996
2 25407  71.0118 181.6704 0006727   8.1581 351.9650 14.16189971427098
ISS (ZARYA)             
1 25544U 98067A   26068.44878279  .00007802  00000+0  15192-3 0  9998
2 25544  51.6321  73.5472 0008026 173.5451 186.5642 15.48542052556295
CZ-4B R/B               
1 25732U 99025C   26068.10132502  .00000065  00000+0  52151-4 0  9998
2 25732  98.6628 112.3969 0036772 348.3339  74.1622 14.18265216388084
OKEAN-O                 
1 25860U 99039A   26068.44919504  .00000801  00000+0  11195-3 0  9997
2 25860  97.9443 128.3432 0001286  70.4188 289.7163 14.80334592434351
SL-16 R/B               
1 25861U 99039B   26068.63187305  .00000729  00000+0  99267-4 0  9991
2 25861  97.9967 127.7288 0013498 256.2873 103.6837 14.81731477436851
DELTA 2 R/B             
1 25876U 99041E   26068.01701332  .00001371  00000+0  25878-3 0  9994
2 25876  51.7627 303.9675 0502374 346.4504  12.3345 14.11835935362939
HELIOS 1B               
1 25977U 99064A   26068.64659373  .00002165  00000+0  24410-3 0  9990
2 25977  98.1690 330.8888 0002461  75.2107 284.9381 14.87698659685252
TERRA                   
1 25994U 99068A   26068.65666740  .00000574  00000+0  12614-3 0  9995
2 25994  97.9594 122.0927 0002695 151.3484 321.8861 14.61014722395076
SL-16 R/B               
1 26070U 00006B   26068.51791186 -.00000089  00000+0 -20683-4 0  9992
2 26070  71.0010  98.1989 0016793 190.4760 169.6016 14.15825785348531
TITAN 4B R/B            
1 26474U 00047B   26068.49777989  .00005524  00000+0  34548-3 0  9998
2 26474  67.9901  41.0498 0038605  35.6274 324.7440 15.09560236392883
ENVISAT                 
1 27386U 02009A   26068.48245045  .00000177  00000+0  71329-4 0  9991
2 27386  98.3728  22.0847 0001332  82.9003  27.3953 14.39036838259144
IDEFIX & ARIANE 42P R/B 
1 27422U 02021B   26068.42594386  .00000374  00000+0  15845-3 0  9994
2 27422  98.5868   7.0354 0011554 183.0056 177.1059 14.31025981243981
